STARLINK-33787          
1 63519U 25071AC  26068.46548510  .00025900  00000+0  88384-3 0  9993
2 63519  53.1596 143.1949 0001252  63.8364 296.2765 15.30188521 52330
KUIPER-00175            
1 67135U 25301C   26068.97960463  .00019968  00000+0  66732-3 0  9998
2 67135  51.8781  63.6978 0002279  50.5695 309.5490 15.30996371 13854
