[{"OBJECT_NAME":"STARLINK-33787","OBJECT_ID":"2025-071AC","EPOCH":"2026-03-09T11:10:17.912640","MEAN_MOTION":15.30188521,"ECCENTRICITY":0.00012529,"INCLINATION":53.1596,"RA_OF_ASC_NODE":143.1949,"ARG_OF_PERICENTER":63.8364,"MEAN_ANOMALY":296.2765,"EPHEMERIS_TYPE":0,"CLASSIFICATION_TYPE":"U","NORAD_CAT_ID":63519,"ELEMENT_SET_NO":999,"REV_AT_EPOCH":5233,"BSTAR":0.00088384149,"MEAN_MOTION_DOT":0.000259,"MEAN_MOTION_DDOT":0},{"OBJECT_NAME":"KUIPER-00175","OBJECT_ID":"2025-301C","EPOCH":"2026-03-09T23:30:37.840032","MEAN_MOTION":15.30996371,"ECCENTRICITY":0.00022792,"INCLINATION":51.8781,"RA_OF_ASC_NODE":63.6978,"ARG_OF_PERICENTER":50.5695,"MEAN_ANOMALY":309.549,"EPHEMERIS_TYPE":0,"CLASSIFICATION_TYPE":"U","NORAD_CAT_ID":67135,"ELEMENT_SET_NO":999,"REV_AT_EPOCH":1385,"BSTAR":0.00066732304,"MEAN_MOTION_DOT":0.00019968,"MEAN_MOTION_DDOT":0}]
